[
    {
        "Altitude(m)": 607910.993202733,
        "Argument of Periapsis(deg)": 0.0,
        "Eccentricity": 0.0,
        "Inclination(deg)": 60.0,
        "Latitude(deg)": -14.292854945246816,
        "Longitude(deg)": 53.44267034439886,
        "Mean Anomaly(deg)": -163.63640000000007,
        "RAAN(deg)": 325.0,
        "Satellite Name": "Test1 1442",
        "Satellite Number": 1442,
        "Semi-Major Axis(m)": 6980739.136638005,
        "Time(s)": 0
    },
    {
        "Altitude(m)": 608060.2261745546,
        "Argument of Periapsis(deg)": 0.00010418945913296404,
        "Eccentricity": 0.0,
        "Inclination(deg)": 60.0,
        "Latitude(deg)": -14.826515896773294,
        "Longitude(deg)": 53.731280557253996,
        "Mean Anomaly(deg)": -163.01629385453822,
        "RAAN(deg)": 324.99957995086027,
        "Satellite Name": "Test1 1442",
        "Satellite Number": 1442,
        "Semi-Major Axis(m)": 6980739.136638005,
        "Time(s)": 10
    }
]